{
  "norad_id": 57434,
  "name": "STARLINK-30102",
  "history": [
    {
      "epoch": "2026-03-28T20:44:08.284992Z",
      "apogee_km": 480.706748441793,
      "perigee_km": 479.7427371152271,
      "latitude_deg": -8.215641944689624e-06,
      "longitude_deg": 14.30315226849171,
      "height_km": 479.65305312693476,
      "semi_major_axis_km": 6858.361742778509,
      "eccentricity": 7.028e-05,
      "inclination_deg": 43.0014,
      "raan_deg": 151.616,
      "arg_perigee_deg": 316.1654,
      "mean_anomaly_deg": 43.9142,
      "mean_motion_rev_day": 15.2852371
    }
  ]
}