{"fetched_at":"2026-03-29T16:36:15Z","count":15609,"tles":[{"name":"STARLINK-30102","line1":"1 57434U 23105E   26087.86398478  .00460495  00000+0  15277-1 0  9990","line2":"2 57434  43.0014 151.6160 0000702 316.1654  43.9142 15.28523710148462","category":"Starlink"}]}